[{"OBJECT_NAME":"HAWK-10A","OBJECT_ID":"2024-149CA","EPOCH":"2026-03-09T19:11:42.074592","MEAN_MOTION":14.96174213,"ECCENTRICITY":0.00043334,"INCLINATION":97.6943,"RA_OF_ASC_NODE":146.4192,"ARG_OF_PERICENTER":57.1994,"MEAN_ANOMALY":302.9645,"EPHEMERIS_TYPE":0,"CLASSIFICATION_TYPE":"U","NORAD_CAT_ID":60540,"ELEMENT_SET_NO":999,"REV_AT_EPOCH":8512,"BSTAR":0.00019454,"MEAN_MOTION_DOT":2.135e-5,"MEAN_MOTION_DDOT":0},{"OBJECT_NAME":"COSMOS 2251 DEB","OBJECT_ID":"1993-036BPT","EPOCH":"2026-03-03T18:02:37.907232","MEAN_MOTION":15.02748901,"ECCENTRICITY":0.00784494,"INCLINATION":73.9982,"RA_OF_ASC_NODE":105.7002,"ARG_OF_PERICENTER":203.8682,"MEAN_ANOMALY":155.8863,"EPHEMERIS_TYPE":0,"CLASSIFICATION_TYPE":"U","NORAD_CAT_ID":37968,"ELEMENT_SET_NO":999,"REV_AT_EPOCH":61435,"BSTAR":0.00086959674,"MEAN_MOTION_DOT":0.0001241,"MEAN_MOTION_DDOT":0}]
